BEIJING 1               
1 28890U 05043A   22227.83345069  .00000103  00000+0  30265-4 0  9995
2 28890  98.1252 349.1661 0014935 353.5062   6.5957 14.61477524895816
HJ-1A                   
1 33320U 08041A   22227.73116043  .00000364  00000+0  57189-4 0  9990
2 33320  97.6744 258.0016 0022144  42.1349 318.1563 14.77890676751148
HJ-1B                   
1 33321U 08041B   22227.95180574  .00000802  00000+0  11740-3 0  9994
2 33321  97.6917 261.8966 0035661  58.0474 302.4190 14.77824090751172
YAOGAN 4                
1 33446U 08061A   22227.36837478  .00000403  00000+0  63635-4 0  9999
2 33446  97.8183 165.7117 0015025 307.0069  52.9767 14.77432553738290
DEIMOS-1                
1 35681U 09041A   22227.73649772  .00000275  00000+0  51025-4 0  9997
2 35681  97.7095  75.7543 0002689  59.1407 301.0068 14.72089623700494
UK-DMC 2                
1 35683U 09041C   22227.92376361  .00000401  00000+0  72093-4 0  9990
2 35683  97.7019  37.7923 0001902  82.2559 277.8866 14.71462948700258
RISAT 1                 
1 38248U 12017A   22227.75786226  .00002426  00000+0  14402-3 0  9991
2 38248  97.5526 238.4859 0005487  67.2663 292.9146 15.12264784567780
DMC3-FM1                
1 40715U 15032A   22227.74122440  .00000340  00000+0  49163-4 0  9990
2 40715  97.8397 113.3750 0005439 341.0091  19.0924 14.82166782382071
DMC3-FM2                
1 40716U 15032B   22227.69652575  .00000348  00000+0  50213-4 0  9998
2 40716  97.8435 114.0030 0007554 340.4923  19.6004 14.82158789382074
DMC3-FM3                
1 40717U 15032C   22227.71850653  .00000340  00000+0  49204-4 0  9999
2 40717  97.8467 114.9612 0009263 335.8655  24.2136 14.82186653382073
